NORAD_CAT_ID,OBJECT_NAME,OBJECT_TYPE,EPOCH,MEAN_MOTION,ECCENTRICITY,INCLINATION,RA_OF_ASC_NODE,ARG_OF_PERICENTER,MEAN_ANOMALY,BSTAR,MEAN_MOTION_DOT,MEAN_MOTION_DDOT,TLE_LINE0,TLE_LINE1,TLE_LINE2,SEMIMAJOR_AXIS,PERIOD,APOGEE,PERIGEE,DECAYED
53005.0,STARLINK-4288,PAYLOAD,2024-07-08 13:58:46,15.08843959,0.0001619,53.2167,308.5133,80.7771,279.3404,9.9222e-05,1.292e-05,0.0,0 STARLINK-4288,1 53005U 22076V   24190.58248827  .00001292  00000-0  99222-4 0  9992,2 53005  53.2167 308.5133 0001619  80.7771 279.3404 15.08843959110899,6917.868,95.437,540.853,538.613,0.0
53005.0,STARLINK-4288,PAYLOAD,2024-07-09 01:06:29,15.08842307,0.0001615,53.2176,306.433,81.0536,279.0639,6.8631e-05,8.04e-06,0.0,0 STARLINK-4288,1 53005U 22076V   24191.04616927  .00000804  00000-0  68631-4 0  9992,2 53005  53.2176 306.4330 0001615  81.0536 279.0639 15.08842307111438,6917.873,95.437,540.856,538.621,0.0
53005.0,STARLINK-4288,PAYLOAD,2024-07-09 13:49:34,15.08837769,0.0001234,53.2149,304.0536,88.9583,271.155,3.8562e-05,3.26e-06,0.0,0 STARLINK-4288,1 53005U 22076V   24191.57609116  .00000326  00000-0  38562-4 0  9991,2 53005  53.2149 304.0536 0001234  88.9583 271.1550 15.08837769111043,6917.887,95.438,540.606,538.899,0.0
53005.0,STARLINK-4288,PAYLOAD,2024-07-10 13:40:21,15.08835135,0.000129,53.2167,299.5929,88.8317,271.2823,0.0002048,2.973e-05,0.0,0 STARLINK-4288,1 53005U 22076V   24192.56969134  .00002973  00000-0  20480-3 0  9999,2 53005  53.2167 299.5929 0001290  88.8317 271.2823 15.08835135111660,6917.895,95.438,540.653,538.868,0.0
53005.0,STARLINK-4288,PAYLOAD,2024-07-10 16:51:06,15.08850332,0.0001379,53.2166,298.9973,94.5584,265.5566,4.7467e-05,4.68e-06,0.0,0 STARLINK-4288,1 53005U 22076V   24192.70216366  .00000468  00000-0  47467-4 0  9999,2 53005  53.2166 298.9973 0001379  94.5584 265.5566 15.08850332111687,6917.849,95.437,540.668,538.76,0.0
53005.0,STARLINK-4288,PAYLOAD,2024-07-11 13:31:07,15.08846259,0.0001457,53.2171,295.1261,111.0401,249.0747,4.6579e-05,4.54e-06,0.0,0 STARLINK-4288,1 53005U 22076V   24193.56328627  .00000454  00000-0  46579-4 0  9996,2 53005  53.2171 295.1261 0001457 111.0401 249.0747 15.08846259111346,6917.861,95.437,540.734,538.718,0.0
53005.0,STARLINK-4288,PAYLOAD,2024-07-11 16:41:54,15.08844807,0.0001195,53.2171,294.5365,94.5633,265.5496,9.712e-05,1.258e-05,0.0,0 STARLINK-4288,1 53005U 22076V   24193.69576670  .00001258  00000-0  97120-4 0  9994,2 53005  53.2171 294.5365 0001195  94.5633 265.5496 15.08844807111830,6917.866,95.437,540.557,538.904,0.0
53005.0,STARLINK-4288,PAYLOAD,2024-07-12 13:21:54,15.08847113,0.0001328,53.2173,290.6691,94.3149,265.7995,0.0001,1.304e-05,0.0,0 STARLINK-4288,1 53005U 22076V   24194.55688597  .00001304  00000-0  10000-3 0  9995,2 53005  53.2173 290.6691 0001328  94.3149 265.7995 15.08847113111490,6917.859,95.437,540.642,538.805,0.0
53005.0,STARLINK-4288,PAYLOAD,2024-07-13 05:15:47,15.08832881,0.0001263,53.2179,287.7028,107.2861,252.827,9.2211e-05,1.18e-05,0.0,0 STARLINK-4288,1 53005U 22076V   24195.21929657  .00001180  00000-0  92211-4 0  9991,2 53005  53.2179 287.7028 0001263 107.2861 252.8270 15.08832881112063,6917.902,95.438,540.641,538.893,0.0
53005.0,STARLINK-4288,PAYLOAD,2024-07-13 13:12:43,15.08834732,0.0001278,53.2168,286.2121,83.2826,276.8312,2.63e-05,1.31e-06,0.0,0 STARLINK-4288,1 53005U 22076V   24195.55050006  .00000131  00000-0  26300-4 0  9992,2 53005  53.2168 286.2121 0001278  83.2826 276.8312 15.08834732111642,6917.896,95.438,540.646,538.877,0.0
53005.0,STARLINK-4288,PAYLOAD,2024-07-13 16:23:29,15.08837464,0.0001252,53.2168,285.617,80.9873,279.1261,5.4905e-05,5.86e-06,0.0,0 STARLINK-4288,1 53005U 22076V   24195.68297857  .00000586  00000-0  54905-4 0  9999,2 53005  53.2168 285.6170 0001252  80.9873 279.1261 15.08837464111663,6917.888,95.438,540.619,538.887,0.0
53005.0,STARLINK-4288,PAYLOAD,2024-07-14 13:03:29,15.08860966,0.0001279,53.2161,281.7521,83.0471,277.0666,0.00068478,0.00010633,0.0,0 STARLINK-4288,1 53005U 22076V   24196.54409049  .00010633  00000-0  68478-3 0  9996,2 53005  53.2161 281.7521 0001279  83.0471 277.0666 15.08860966112266,6917.816,95.436,540.566,538.797,0.0
53005.0,STARLINK-4288,PAYLOAD,2024-07-15 12:54:15,15.08861935,0.0001635,53.2155,277.2892,84.3161,275.8017,0.00036519,5.532e-05,0.0,0 STARLINK-4288,1 53005U 22076V   24197.53768054  .00005532  00000-0  36519-3 0  9993,2 53005  53.2155 277.2892 0001635  84.3161 275.8017 15.08861935112416,6917.813,95.436,540.809,538.547,0.0
53005.0,STARLINK-4288,PAYLOAD,2024-07-15 14:29:38,15.08865129,0.0001678,53.2144,276.9919,83.4299,276.6884,0.00040449,6.16e-05,0.0,0 STARLINK-4288,1 53005U 22076V   24197.60391865  .00006160  00000-0  40449-3 0  9998,2 53005  53.2144 276.9919 0001678  83.4299 276.6884 15.08865129111957,6917.804,95.436,540.829,538.508,0.0
53005.0,STARLINK-4288,PAYLOAD,2024-07-15 22:26:34,15.08848638,0.0002352,53.2144,275.5063,73.211,286.914,-1.4549e-05,-5.2e-06,0.0,0 STARLINK-4288,1 53005U 22076V   24197.93512371 -.00000520  00000-0 -14549-4 0  9990,2 53005  53.2144 275.5063 0002352  73.2110 286.9140 15.08848638112003,6917.854,95.437,541.346,538.092,0.0
53005.0,STARLINK-4288,PAYLOAD,2024-07-16 04:48:07,15.08848715,0.0002789,53.2125,274.3158,73.581,286.5488,3.3554e-05,2.46e-06,0.0,0 STARLINK-4288,1 53005U 22076V   24198.20008438  .00000246  00000-0  33554-4 0  9995,2 53005  53.2125 274.3158 0002789  73.5810 286.5488 15.08848715112511,6917.854,95.437,541.648,537.789,0.0
53005.0,STARLINK-4288,PAYLOAD,2024-07-16 12:45:03,15.08832445,0.0001509,53.2149,272.8298,69.9357,290.1797,-0.00026407,-4.487e-05,0.0,0 STARLINK-4288,1 53005U 22076V   24198.53128854 -.00004487  00000-0 -26407-3 0  9997,2 53005  53.2149 272.8298 0001509  69.9357 290.1797 15.08832445112561,6917.903,95.438,540.812,538.725,0.0
53005.0,STARLINK-4288,PAYLOAD,2024-07-17 11:00:27,15.0883947,0.0001472,53.2146,268.6645,75.8967,284.2189,0.00031159,4.674e-05,0.0,0 STARLINK-4288,1 53005U 22076V   24199.45865191  .00004674  00000-0  31159-3 0  9997,2 53005  53.2146 268.6645 0001472  75.8967 284.2189 15.08839470112709,6917.882,95.438,540.765,538.729,0.0
53005.0,STARLINK-4288,PAYLOAD,2024-07-18 04:29:42,15.08841118,0.0001513,53.2134,265.3961,70.5423,289.5733,0.000387,5.877e-05,0.0,0 STARLINK-4288,1 53005U 22076V   24200.18729647  .00005877  00000-0  38700-3 0  9990,2 53005  53.2134 265.3961 0001513  70.5423 289.5733 15.08841118112813,6917.877,95.437,540.789,538.695,0.0
53005.0,STARLINK-4288,PAYLOAD,2024-07-18 10:51:14,15.08843298,0.0001286,53.2158,264.2045,77.2117,282.9019,0.00037628,5.706e-05,0.0,0 STARLINK-4288,1 53005U 22076V   24200.45225575  .00005706  00000-0  37628-3 0  9990,2 53005  53.2158 264.2045 0001286  77.2117 282.9019 15.08843298112388,6917.87,95.437,540.625,538.846,0.0
53005.0,STARLINK-4288,PAYLOAD,2024-07-19 04:20:29,15.08836737,0.0001676,53.2155,260.9335,88.2995,271.8189,0.000107,1.415e-05,0.0,0 STARLINK-4288,1 53005U 22076V   24201.18089940  .00001415  00000-0  10700-3 0  9990,2 53005  53.2155 260.9335 0001676  88.2995 271.8189 15.08836737112968,6917.89,95.438,540.915,538.596,0.0
53005.0,STARLINK-4288,PAYLOAD,2024-07-19 10:42:02,15.08841723,0.0001541,53.2155,259.7442,85.9228,274.1941,6.7075e-05,7.8e-06,0.0,0 STARLINK-4288,1 53005U 22076V   24201.44585787  .00000780  00000-0  67075-4 0  9991,2 53005  53.2155 259.7442 0001541  85.9228 274.1941 15.08841723112533,6917.875,95.437,540.806,538.674,0.0
53005.0,STARLINK-4288,PAYLOAD,2024-07-20 04:11:17,15.08832389,0.0001505,53.2148,256.4716,87.5171,272.5993,-2.0403e-05,-6.13e-06,0.0,0 STARLINK-4288,1 53005U 22076V   24202.17450455 -.00000613  00000-0 -20403-4 0  9996,2 53005  53.2148 256.4716 0001505  87.5171 272.5993 15.08832389113110,6917.904,95.438,540.81,538.728,0.0
53005.0,STARLINK-4288,PAYLOAD,2024-07-20 10:32:49,15.08838482,0.0001418,53.2164,255.285,89.5241,270.5914,7.2863e-05,8.72e-06,0.0,0 STARLINK-4288,1 53005U 22076V   24202.43946224  .00000872  00000-0  72863-4 0  9991,2 53005  53.2164 255.2850 0001418  89.5241 270.5914 15.08838482112689,6917.885,95.438,540.731,538.769,0.0
53005.0,STARLINK-4288,PAYLOAD,2024-07-21 08:48:13,15.08839883,0.0001522,53.2154,251.1203,85.9843,274.1323,0.00012147,1.646e-05,0.0,0 STARLINK-4288,1 53005U 22076V   24203.36682361  .00001646  00000-0  12147-3 0  9991,2 53005  53.2154 251.1203 0001522  85.9843 274.1323 15.08839883113297,6917.881,95.438,540.799,538.693,0.0
53005.0,STARLINK-4288,PAYLOAD,2024-07-22 11:49:47,15.08840638,0.0001496,53.2158,246.064,88.3373,271.7791,8.2201e-05,1.021e-05,0.0,0 STARLINK-4288,1 53005U 22076V   24204.49290640  .00001021  00000-0  82201-4 0  9997,2 53005  53.2158 246.0640 0001496  88.3373 271.7791 15.08840638113465,6917.878,95.438,540.778,538.709,0.0
53005.0,STARLINK-4288,PAYLOAD,2024-07-23 10:05:10,15.088459,0.0001622,53.2153,241.8999,100.7138,259.4037,9.2819e-05,1.19e-05,0.0,0 STARLINK-4288,1 53005U 22076V   24205.42026237  .00001190  00000-0  92819-4 0  9993,2 53005  53.2153 241.8999 0001622 100.7138 259.4037 15.08845900113136,6917.862,95.437,540.849,538.605,0.0
53005.0,STARLINK-4288,PAYLOAD,2024-07-24 01:59:02,15.08833539,0.0001523,53.2153,238.9312,79.6121,280.5043,0.00011541,1.549e-05,0.0,0 STARLINK-4288,1 53005U 22076V   24206.08266992  .00001549  00000-0  11541-3 0  9990,2 53005  53.2153 238.9312 0001523  79.6121 280.5043 15.08833539113708,6917.9,95.438,540.819,538.712,0.0
53005.0,STARLINK-4288,PAYLOAD,2024-07-24 11:31:21,15.08834092,0.0001448,53.2151,237.1432,91.3787,268.7371,1.8862e-05,1.2e-07,0.0,0 STARLINK-4288,1 53005U 22076V   24206.48011310  .00000012  00000-0  18862-4 0  9994,2 53005  53.2151 237.1432 0001448  91.3787 268.7371 15.08834092113296,6917.898,95.438,540.765,538.762,0.0
53005.0,STARLINK-4288,PAYLOAD,2024-07-25 01:49:48,15.08826158,0.0001535,53.2154,234.4666,98.8772,261.2394,0.00041284,6.286e-05,0.0,0 STARLINK-4288,1 53005U 22076V   24207.07626143  .00006286  00000-0  41284-3 0  9998,2 53005  53.2154 234.4666 0001535  98.8772 261.2394 15.08826158113850,6917.923,95.438,540.85,538.726,0.0
